EUTELSAT QUANTUM        
1 49056U 21069B   25320.81716825  .00000138  00000+0  00000+0 0  9992
2 49056   0.0554  77.9994 0003024 174.9035 145.1294  1.00272807 15798
EUTELSAT KONNECT VHTS   
1 53765U 22110A   25320.80824154  .00000030  00000+0  00000+0 0  9997
2 53765   0.0557 100.0354 0002545 114.4496 135.3484  1.00270503  4698
EUTELSAT HOTBIRD 13F    
1 54048U 22134A   25320.81032154  .00000100  00000+0  00000+0 0  9998
2 54048   0.0523 288.8967 0002255  71.5907   0.3538  1.00271909 11240
EUTELSAT HOTBIRD 13G    
1 54225U 22146A   25320.81032154  .00000100  00000+0  00000+0 0  9998
2 54225   0.0461 240.5024 0002017 297.5350 182.8305  1.00272145  5339
EUTELSAT 10B            
1 54259U 22157A   25320.80971487  .00000081  00000+0  00000+0 0  9995
2 54259   0.0562  97.9625 0000864  45.5791 214.0700  1.00271278 10897
EUTELSAT 36D            
1 59346U 24059A   25320.81482823  .00000000  00000+0  00000+0 0  9993
2 59346   0.0213 290.3522 0000536  68.9297  26.0308  1.00271309  6012
